OBJECT_NAME,OBJECT_ID,EPOCH,MEAN_MOTION,ECCENTRICITY,INCLINATION,RA_OF_ASC_NODE,ARG_OF_PERICENTER,MEAN_ANOMALY,EPHEMERIS_TYPE,CLASSIFICATION_TYPE,NORAD_CAT_ID,ELEMENT_SET_NO,REV_AT_EPOCH,BSTAR,MEAN_MOTION_DOT,MEAN_MOTION_DDOT
STARLINK-37739,2026-115Y,2026-06-04T18:00:02.998944,15.80807569,.0001026,97.2834,172.5504,106.5195,254.4089,0,U,69233,999,269,.67513E-4,.12804E-3,0
STARLINK-37755,2026-115Z,2026-06-04T18:00:02.998944,15.80995339,.0001209,97.2831,172.5553,69.2748,305.2505,0,U,69234,999,269,-.28657E-2,-.521784E-2,0
TJS-24,2026-116A,2026-05-26T22:03:24.237792,2.27837712,.7312999,19.5460,149.2488,179.4286,182.6145,0,U,69235,999,2,.21296435E-3,.5573E-4,-.371334E-6
STARLINK-37665,2026-117A,2026-06-04T18:00:02.998944,15.98326433,.0000713,53.1588,306.2821,58.0102,268.1090,0,U,69238,999,217,-.48041E-2,-.2274813E-1,.1487E-2
STARLINK-37558,2026-117B,2026-06-04T18:00:02.998944,15.98647888,.0000709,53.1587,306.2735,51.8498,278.4487,0,U,69239,999,217,-.48805E-2,-.2352435E-1,.1593E-2
STARLINK-37680,2026-117C,2026-06-04T18:00:02.998944,15.98849250,.0000656,53.1588,306.2641,55.0773,279.7196,0,U,69240,999,216,-.47215E-2,-.230213E-1,.15312E-2
STARLINK-37742,2026-117D,2026-06-04T18:00:02.998944,15.99150234,.0000729,53.1587,306.2566,56.0452,282.2832,0,U,69241,999,217,-.45464E-2,-.2255232E-1,.14767E-2
STARLINK-37718,2026-117E,2026-06-04T18:00:02.998944,15.99492572,.0000602,53.1588,306.2495,48.2346,293.4990,0,U,69242,999,216,-.44914E-2,-.2271467E-1,.15035E-2
STARLINK-37735,2026-117F,2026-06-04T18:00:02.998944,15.99539320,.0000676,53.1586,306.2417,41.7427,303.7591,0,U,69243,999,217,-.46375E-2,-.2350984E-1,.16084E-2
STARLINK-37757,2026-117G,2026-06-04T18:00:02.998944,15.99927492,.0000725,53.1586,306.2302,64.1866,286.7596,0,U,69244,999,217,-.44395E-2,-.2301369E-1,.15502E-2
STARLINK-37767,2026-117H,2026-06-04T18:00:02.998944,16.00783331,.0000581,53.1582,306.2079,57.2955,304.4965,0,U,69245,999,217,-.41641E-2,-.2267725E-1,.15224E-2
STARLINK-35759,2026-117J,2026-06-04T18:00:02.998944,16.00894446,.0000735,53.1583,306.2012,57.3503,307.6451,0,U,69246,999,222,-.41737E-2,-.2287496E-1,.15504E-2
STARLINK-37238,2026-117K,2026-06-04T18:00:02.998944,16.01500119,.000047,53.1583,306.1851,28.5398,344.0717,0,U,69247,999,217,-.35309E-2,-.2007066E-1,.12148E-2
STARLINK-37412,2026-117L,2026-06-04T18:00:02.998944,16.02468087,.00006,53.1583,306.1704,52.2236,327.5747,0,U,69248,999,224,-.37123E-2,-.2231273E-1,.15065E-2
STARLINK-37398,2026-117M,2026-06-04T18:00:02.998944,16.02441572,.0000726,53.1581,306.1639,38.9921,343.7689,0,U,69249,999,224,-.36667E-2,-.2200661E-1,.14662E-2
STARLINK-37499,2026-117N,2026-06-04T18:00:02.998944,16.02724655,.000068,53.1582,306.1567,52.9158,333.4046,0,U,69250,999,224,-.36549E-2,-.2230461E-1,.15104E-2
STARLINK-37489,2026-117P,2026-06-04T18:00:02.998944,16.02989658,.000078,53.1583,306.1450,54.7639,337.1010,0,U,69251,999,224,-.35613E-2,-.2208024E-1,.1486E-2
STARLINK-37434,2026-117Q,2026-06-04T18:00:02.998944,16.03378112,.0000613,53.1580,306.1352,52.1373,344.3283,0,U,69252,999,217,-.33615E-2,-.2133577E-1,.13974E-2
STARLINK-37368,2026-117R,2026-06-04T18:00:02.998944,16.04412259,.0000575,53.1579,306.1123,62.6587,344.8268,0,U,69253,999,224,-.30084E-2,-.2033215E-1,.12905E-2
STARLINK-37517,2026-117S,2026-06-04T18:00:02.998944,16.04780878,.0001059,53.1580,306.1051,78.9563,332.1542,0,U,69254,999,224,-.371E-2,-.2562151E-1,.20465E-2
STARLINK-37378,2026-117T,2026-06-04T18:00:02.998944,16.04875750,.0001141,53.1579,306.0969,65.4613,349.4105,0,U,69255,999,216,-.37662E-2,-.2616531E-1,.21394E-2
STARLINK-37396,2026-117U,2026-06-04T18:00:02.998944,16.05110993,.0000656,53.1578,306.0844,34.5951,26.1532,0,U,69256,999,224,-.28981E-2,-.2043762E-1,.1315E-2
STARLINK-37508,2026-117V,2026-06-04T18:00:02.998944,16.05418397,.0000753,53.1576,306.0745,38.1943,27.1630,0,U,69257,999,216,-.28499E-2,-.2048109E-1,.13256E-2
STARLINK-37276,2026-117W,2026-06-04T18:00:02.998944,16.06301894,.0000557,53.1576,306.0597,43.5693,28.7627,0,U,69258,999,216,-.45903E-3,-.355475E-2,.59417E-4
STARLINK-37518,2026-117X,2026-06-04T18:00:02.998944,16.06802258,.0000583,53.1574,306.0504,48.3471,28.8459,0,U,69259,999,217,-.43666E-3,-.348998E-2,.58044E-4
STARLINK-37478,2026-117Y,2026-06-04T18:00:02.998944,16.07053640,.0000591,53.1576,306.0408,39.5652,42.1806,0,U,69260,999,217,-.42474E-3,-.344934E-2,.57149E-4
STARLINK-37506,2026-117Z,2026-06-04T18:00:02.998944,16.07215906,.0000613,53.1573,306.0334,40.8416,44.4525,0,U,69261,999,217,-.43298E-3,-.355129E-2,.5993E-4
STARLINK-37503,2026-117AA,2026-06-04T18:00:02.998944,16.07593995,.0000593,53.1575,306.0229,48.8227,41.2412,0,U,69262,999,217,-.55924E-3,-.46838E-2,.94781E-4
