STARLINK-37739          
1 69233U 26115Y   26155.75003471  .00012804  00000+0  67513-4 0  9994
2 69233  97.2834 172.5504 0001026 106.5195 254.4089 15.80807569  2696
STARLINK-37755          
1 69234U 26115Z   26155.75003471 -.00521784  00000+0 -28657-2 0  9993
2 69234  97.2831 172.5553 0001209  69.2748 305.2505 15.80995339  2691
TJS-24                  
1 69235U 26116A   26146.91903053  .00005573 -37133-6  21296-3 0  9997
2 69235  19.5460 149.2488 7312999 179.4286 182.6145  2.27837712    23
STARLINK-37665          
1 69238U 26117A   26155.75003471 -.02274813  14870-2 -48041-2 0  9991
2 69238  53.1588 306.2821 0000713  58.0102 268.1090 15.98326433  2179
STARLINK-37558          
1 69239U 26117B   26155.75003471 -.02352435  15930-2 -48805-2 0  9995
2 69239  53.1587 306.2735 0000709  51.8498 278.4487 15.98647888  2171
STARLINK-37680          
1 69240U 26117C   26155.75003471 -.02302130  15312-2 -47215-2 0  9992
2 69240  53.1588 306.2641 0000656  55.0773 279.7196 15.98849250  2160
STARLINK-37742          
1 69241U 26117D   26155.75003471 -.02255232  14767-2 -45464-2 0  9990
2 69241  53.1587 306.2566 0000729  56.0452 282.2832 15.99150234  2177
STARLINK-37718          
1 69242U 26117E   26155.75003471 -.02271467  15035-2 -44914-2 0  9997
2 69242  53.1588 306.2495 0000602  48.2346 293.4990 15.99492572  2167
STARLINK-37735          
1 69243U 26117F   26155.75003471 -.02350984  16084-2 -46375-2 0  9998
2 69243  53.1586 306.2417 0000676  41.7427 303.7591 15.99539320  2175
STARLINK-37757          
1 69244U 26117G   26155.75003471 -.02301369  15502-2 -44395-2 0  9996
2 69244  53.1586 306.2302 0000725  64.1866 286.7596 15.99927492  2176
STARLINK-37767          
1 69245U 26117H   26155.75003471 -.02267725  15224-2 -41641-2 0  9996
2 69245  53.1582 306.2079 0000581  57.2955 304.4965 16.00783331  2179
STARLINK-35759          
1 69246U 26117J   26155.75003471 -.02287496  15504-2 -41737-2 0  9991
2 69246  53.1583 306.2012 0000735  57.3503 307.6451 16.00894446  2220
STARLINK-37238          
1 69247U 26117K   26155.75003471 -.02007066  12148-2 -35309-2 0  9994
2 69247  53.1583 306.1851 0000470  28.5398 344.0717 16.01500119  2175
STARLINK-37412          
1 69248U 26117L   26155.75003471 -.02231273  15065-2 -37123-2 0  9991
2 69248  53.1583 306.1704 0000600  52.2236 327.5747 16.02468087  2248
STARLINK-37398          
1 69249U 26117M   26155.75003471 -.02200661  14662-2 -36667-2 0  9993
2 69249  53.1581 306.1639 0000726  38.9921 343.7689 16.02441572  2240
STARLINK-37499          
1 69250U 26117N   26155.75003471 -.02230461  15104-2 -36549-2 0  9997
2 69250  53.1582 306.1567 0000680  52.9158 333.4046 16.02724655  2249
STARLINK-37489          
1 69251U 26117P   26155.75003471 -.02208024  14860-2 -35613-2 0  9997
2 69251  53.1583 306.1450 0000780  54.7639 337.1010 16.02989658  2245
STARLINK-37434          
1 69252U 26117Q   26155.75003471 -.02133577  13974-2 -33615-2 0  9993
2 69252  53.1580 306.1352 0000613  52.1373 344.3283 16.03378112  2178
STARLINK-37368          
1 69253U 26117R   26155.75003471 -.02033215  12905-2 -30084-2 0  9992
2 69253  53.1579 306.1123 0000575  62.6587 344.8268 16.04412259  2241
STARLINK-37517          
1 69254U 26117S   26155.75003471 -.02562151  20465-2 -37100-2 0  9995
2 69254  53.1580 306.1051 0001059  78.9563 332.1542 16.04780878  2246
STARLINK-37378          
1 69255U 26117T   26155.75003471 -.02616531  21394-2 -37662-2 0  9993
2 69255  53.1579 306.0969 0001141  65.4613 349.4105 16.04875750  2162
STARLINK-37396          
1 69256U 26117U   26155.75003471 -.02043762  13150-2 -28981-2 0  9999
2 69256  53.1578 306.0844 0000656  34.5951  26.1532 16.05110993  2240
STARLINK-37508          
1 69257U 26117V   26155.75003471 -.02048109  13256-2 -28499-2 0  9991
2 69257  53.1576 306.0745 0000753  38.1943  27.1630 16.05418397  2168
STARLINK-37276          
1 69258U 26117W   26155.75003471 -.00355475  59417-4 -45903-3 0  9998
2 69258  53.1576 306.0597 0000557  43.5693  28.7627 16.06301894  2165
STARLINK-37518          
1 69259U 26117X   26155.75003471 -.00348998  58044-4 -43666-3 0  9990
2 69259  53.1574 306.0504 0000583  48.3471  28.8459 16.06802258  2173
STARLINK-37478          
1 69260U 26117Y   26155.75003471 -.00344934  57149-4 -42474-3 0  9999
2 69260  53.1576 306.0408 0000591  39.5652  42.1806 16.07053640  2171
STARLINK-37506          
1 69261U 26117Z   26155.75003471 -.00355129  59930-4 -43298-3 0  9993
2 69261  53.1573 306.0334 0000613  40.8416  44.4525 16.07215906  2173
STARLINK-37503          
1 69262U 26117AA  26155.75003471 -.00468380  94781-4 -55924-3 0  9990
2 69262  53.1575 306.0229 0000593  48.8227  41.2412 16.07593995  2171
